{"type": "FeatureCollection", "features": [{"type": "Feature", "properties": {"norad_id": 26766, "name": "INTELSAT 10 (IS-10)", "group": "intelsat", "lat": -2.1317371064557813, "lon": 46.85385794083365, "alt_km": 36140.85695011364, "timestamp": "2025-12-23T14:49:08.997414+00:00", "meta": {"OBJECT_NAME": "INTELSAT 10 (IS-10)", "OBJECT_ID": "2001-019A", "EPOCH": "2025-12-22T17:02:39.635808", "MEAN_MOTION": 0.99073291, "ECCENTRICITY": 0.00077896, "INCLINATION": 8.6516, "RA_OF_ASC_NODE": 61.0562, "ARG_OF_PERICENTER": 228.8792, "MEAN_ANOMALY": 153.0858, "EPHEMERIS_TYPE": 0, "CLASSIFICATION_TYPE": "U", "NORAD_CAT_ID": 26766, "ELEMENT_SET_NO": 999, "REV_AT_EPOCH": 4383, "BSTAR": 0, "MEAN_MOTION_DOT": -4.3e-07, "MEAN_MOTION_DDOT": 0}, "tle": {"line1": "1 26766U 01019A   25356.71018097 -.00000043  00000+0  00000+0 0  9998", "line2": "2 26766   8.6516  61.0562 0007789 228.8792 153.0858  0.99073291 43832"}}, "geometry": {"type": "Point", "coordinates": [46.85385794083365, -2.1317371064557813]}}, {"type": "Feature", "properties": {"norad_id": 26900, "name": "INTELSAT 902 (IS-902)", "group": "intelsat", "lat": -1.059888354534044, "lon": -95.53409732732672, "alt_km": 35768.291940155024, "timestamp": "2025-12-23T14:49:08.997439+00:00", "meta": {"OBJECT_NAME": "INTELSAT 902 (IS-902)", "OBJECT_ID": "2001-039A", "EPOCH": "2025-12-15T13:09:02.081664", "MEAN_MOTION": 1.0027087, "ECCENTRICITY": 0.00045028, "INCLINATION": 5.6536, "RA_OF_ASC_NODE": 74.0372, "ARG_OF_PERICENTER": 189.6359, "MEAN_ANOMALY": 327.9329, "EPHEMERIS_TYPE": 0, "CLASSIFICATION_TYPE": "U", "NORAD_CAT_ID": 26900, "ELEMENT_SET_NO": 999, "REV_AT_EPOCH": 8885, "BSTAR": 0, "MEAN_MOTION_DOT": -2.65e-06, "MEAN_MOTION_DDOT": 0}, "tle": {"line1": "1 26900U 01039A   25349.54794076 -.00000265  00000+0  00000+0 0  9997", "line2": "2 26900   5.6536  74.0372 0004502 189.6359 327.9329  1.00270870 88858"}}, "geometry": {"type": "Point", "coordinates": [-95.53409732732672, -1.059888354534044]}}, {"type": "Feature", "properties": {"norad_id": 27380, "name": "INTELSAT 904 (IS-904)", "group": "intelsat", "lat": -3.4389060560594373, "lon": -76.97630254844216, "alt_km": 35779.45975097657, "timestamp": "2025-12-23T14:49:08.997457+00:00", "meta": {"OBJECT_NAME": "INTELSAT 904 (IS-904)", "OBJECT_ID": "2002-007A", "EPOCH": "2025-12-23T02:42:38.784960", "MEAN_MOTION": 1.00273733, "ECCENTRICITY": 0.00018306, "INCLINATION": 6.4789, "RA_OF_ASC_NODE": 71.3134, "ARG_OF_PERICENTER": 243.7563, "MEAN_ANOMALY": 146.0036, "EPHEMERIS_TYPE": 0, "CLASSIFICATION_TYPE": "U", "NORAD_CAT_ID": 27380, "ELEMENT_SET_NO": 999, "REV_AT_EPOCH": 5000, "BSTAR": 0, "MEAN_MOTION_DOT": -2.07e-06, "MEAN_MOTION_DDOT": 0}, "tle": {"line1": "1 27380U 02007A   25357.11294890 -.00000207  00000+0  00000+0 0  9993", "line2": "2 27380   6.4789  71.3134 0001830 243.7563 146.0036  1.00273733 50008"}}, "geometry": {"type": "Point", "coordinates": [-76.97630254844216, -3.4389060560594373]}}, {"type": "Feature", "properties": {"norad_id": 27426, "name": "DIRECTV 5 (TEMPO 1)", "group": "intelsat", "lat": 3.53276892108455, "lon": -155.3803654280478, "alt_km": 35781.93711572988, "timestamp": "2025-12-23T14:49:08.997471+00:00", "meta": {"OBJECT_NAME": "DIRECTV 5 (TEMPO 1)", "OBJECT_ID": "2002-023A", "EPOCH": "2025-12-23T04:03:01.086912", "MEAN_MOTION": 1.00271744, "ECCENTRICITY": 0.00032183, "INCLINATION": 4.427, "RA_OF_ASC_NODE": 77.5308, "ARG_OF_PERICENTER": 201.3304, "MEAN_ANOMALY": 123.7372, "EPHEMERIS_TYPE": 0, "CLASSIFICATION_TYPE": "U", "NORAD_CAT_ID": 27426, "ELEMENT_SET_NO": 999, "REV_AT_EPOCH": 8635, "BSTAR": 0, "MEAN_MOTION_DOT": -3.8e-07, "MEAN_MOTION_DDOT": 0}, "tle": {"line1": "1 27426U 02023A   25357.16876258 -.00000038  00000+0  00000+0 0  9993", "line2": "2 27426   4.4270  77.5308 0003218 201.3304 123.7372  1.00271744 86350"}}, "geometry": {"type": "Point", "coordinates": [-155.3803654280478, 3.53276892108455]}}, {"type": "Feature", "properties": {"norad_id": 27438, "name": "INTELSAT 905 (IS-905)", "group": "intelsat", "lat": 6.089949521642971, "lon": 177.5557382434026, "alt_km": 35787.062931152985, "timestamp": "2025-12-23T14:49:08.997484+00:00", "meta": {"OBJECT_NAME": "INTELSAT 905 (IS-905)", "OBJECT_ID": "2002-027A", "EPOCH": "2025-12-23T05:41:27.377952", "MEAN_MOTION": 1.00273243, "ECCENTRICITY": 0.00027491, "INCLINATION": 6.3102, "RA_OF_ASC_NODE": 71.9349, "ARG_OF_PERICENTER": 206.5226, "MEAN_ANOMALY": 121.7385, "EPHEMERIS_TYPE": 0, "CLASSIFICATION_TYPE": "U", "NORAD_CAT_ID": 27438, "ELEMENT_SET_NO": 999, "REV_AT_EPOCH": 4959, "BSTAR": 0, "MEAN_MOTION_DOT": 1.12e-06, "MEAN_MOTION_DDOT": 0}, "tle": {"line1": "1 27438U 02027A   25357.23712243  .00000112  00000+0  00000+0 0  9993", "line2": "2 27438   6.3102  71.9349 0002749 206.5226 121.7385  1.00273243 49592"}}, "geometry": {"type": "Point", "coordinates": [177.5557382434026, 6.089949521642971]}}, {"type": "Feature", "properties": {"norad_id": 27445, "name": "GALAXY 3C (G-3C)", "group": "intelsat", "lat": 2.1284348781459315, "lon": -140.10808322466977, "alt_km": 35783.23105511521, "timestamp": "2025-12-23T14:49:08.997497+00:00", "meta": {"OBJECT_NAME": "GALAXY 3C (G-3C)", "OBJECT_ID": "2002-030A", "EPOCH": "2025-12-23T04:07:46.865280", "MEAN_MOTION": 1.00271641, "ECCENTRICITY": 0.00011418, "INCLINATION": 3.2882, "RA_OF_ASC_NODE": 80.3953, "ARG_OF_PERICENTER": 82.9722, "MEAN_ANOMALY": 255.6879, "EPHEMERIS_TYPE": 0, "CLASSIFICATION_TYPE": "U", "NORAD_CAT_ID": 27445, "ELEMENT_SET_NO": 999, "REV_AT_EPOCH": 4472, "BSTAR": 0, "MEAN_MOTION_DOT": -1.33e-06, "MEAN_MOTION_DDOT": 0}, "tle": {"line1": "1 27445U 02030A   25357.17207020 -.00000133  00000+0  00000+0 0  9994", "line2": "2 27445   3.2882  80.3953 0001141  82.9722 255.6879  1.00271641 44723"}}, "geometry": {"type": "Point", "coordinates": [-140.10808322466977, 2.1284348781459315]}}, {"type": "Feature", "properties": {"norad_id": 27513, "name": "INTELSAT 906 (IS-906)", "group": "intelsat", "lat": -4.450880114826204, "lon": 19.0223434674187, "alt_km": 35792.09990740032, "timestamp": "2025-12-23T14:49:08.997511+00:00", "meta": {"OBJECT_NAME": "INTELSAT 906 (IS-906)", "OBJECT_ID": "2002-041A", "EPOCH": "2025-12-22T20:19:05.827008", "MEAN_MOTION": 1.00273289, "ECCENTRICITY": 0.0006296, "INCLINATION": 5.3553, "RA_OF_ASC_NODE": 75.111, "ARG_OF_PERICENTER": 200.9924, "MEAN_ANOMALY": 184.4567, "EPHEMERIS_TYPE": 0, "CLASSIFICATION_TYPE": "U", "NORAD_CAT_ID": 27513, "ELEMENT_SET_NO": 999, "REV_AT_EPOCH": 8526, "BSTAR": 0, "MEAN_MOTION_DOT": 3.1e-07, "MEAN_MOTION_DDOT": 0}, "tle": {"line1": "1 27513U 02041A   25356.84659522  .00000031  00000+0  00000+0 0  9999", "line2": "2 27513   5.3553  75.1110 0006296 200.9924 184.4567  1.00273289 85263"}}, "geometry": {"type": "Point", "coordinates": [19.0223434674187, -4.450880114826204]}}, {"type": "Feature", "properties": {"norad_id": 27954, "name": "GALAXY 13 (HORIZONS-1)", "group": "intelsat", "lat": 0.9552252728697607, "lon": 164.6283114403643, "alt_km": 35788.51506113461, "timestamp": "2025-12-23T14:49:08.997525+00:00", "meta": {"OBJECT_NAME": "GALAXY 13 (HORIZONS-1)", "OBJECT_ID": "2003-044A", "EPOCH": "2025-12-23T05:34:21.917568", "MEAN_MOTION": 1.00271029, "ECCENTRICITY": 0.00023505, "INCLINATION": 0.9638, "RA_OF_ASC_NODE": 86.332, "ARG_OF_PERICENTER": 182.1372, "MEAN_ANOMALY": 117.1173, "EPHEMERIS_TYPE": 0, "CLASSIFICATION_TYPE": "U", "NORAD_CAT_ID": 27954, "ELEMENT_SET_NO": 999, "REV_AT_EPOCH": 4480, "BSTAR": 0, "MEAN_MOTION_DOT": 1.53e-06, "MEAN_MOTION_DDOT": 0}, "tle": {"line1": "1 27954U 03044A   25357.23219812  .00000153  00000+0  00000+0 0  9995", "line2": "2 27954   0.9638  86.3320 0002350 182.1372 117.1173  1.00271029 44800"}}, "geometry": {"type": "Point", "coordinates": [164.6283114403643, 0.9552252728697607]}}, {"type": "Feature", "properties": {"norad_id": 28358, "name": "INTELSAT 10-02", "group": "intelsat", "lat": -0.028627977434129814, "lon": -46.267707613066364, "alt_km": 35781.45105011046, "timestamp": "2025-12-23T14:49:08.997538+00:00", "meta": {"OBJECT_NAME": "INTELSAT 10-02", "OBJECT_ID": "2004-022A", "EPOCH": "2025-12-23T02:51:22.948704", "MEAN_MOTION": 1.00272591, "ECCENTRICITY": 0.00010506, "INCLINATION": 0.0144, "RA_OF_ASC_NODE": 66.1532, "ARG_OF_PERICENTER": 239.4749, "MEAN_ANOMALY": 188.1743, "EPHEMERIS_TYPE": 0, "CLASSIFICATION_TYPE": "U", "NORAD_CAT_ID": 28358, "ELEMENT_SET_NO": 999, "REV_AT_EPOCH": 7879, "BSTAR": 0, "MEAN_MOTION_DOT": 1.1e-07, "MEAN_MOTION_DDOT": 0}, "tle": {"line1": "1 28358U 04022A   25357.11901561  .00000011  00000+0  00000+0 0  9990", "line2": "2 28358   0.0144  66.1532 0001050 239.4749 188.1743  1.00272591 78794"}}, "geometry": {"type": "Point", "coordinates": [-46.267707613066364, -0.028627977434129814]}}, {"type": "Feature", "properties": {"norad_id": 28626, "name": "XM-3 (RHYTHM)", "group": "intelsat", "lat": -0.1781206185594563, "lon": 17.279413979767067, "alt_km": 36152.53380779213, "timestamp": "2025-12-23T14:49:08.997551+00:00", "meta": {"OBJECT_NAME": "XM-3 (RHYTHM)", "OBJECT_ID": "2005-008A", "EPOCH": "2025-12-23T03:10:06.157344", "MEAN_MOTION": 0.98949891, "ECCENTRICITY": 0.00020619, "INCLINATION": 0.1999, "RA_OF_ASC_NODE": 82.0997, "ARG_OF_PERICENTER": 276.1233, "MEAN_ANOMALY": 206.125, "EPHEMERIS_TYPE": 0, "CLASSIFICATION_TYPE": "U", "NORAD_CAT_ID": 28626, "ELEMENT_SET_NO": 999, "REV_AT_EPOCH": 4085, "BSTAR": 0, "MEAN_MOTION_DOT": 9.8e-07, "MEAN_MOTION_DDOT": 0}, "tle": {"line1": "1 28626U 05008A   25357.13201571  .00000098  00000+0  00000+0 0  9994", "line2": "2 28626   0.1999  82.0997 0002061 276.1233 206.1250  0.98949891 40852"}}, "geometry": {"type": "Point", "coordinates": [17.279413979767067, -0.1781206185594563]}}]}